NORAD_CAT_ID,OBJECT_NAME,OBJECT_TYPE,EPOCH,MEAN_MOTION,ECCENTRICITY,INCLINATION,RA_OF_ASC_NODE,ARG_OF_PERICENTER,MEAN_ANOMALY,BSTAR,MEAN_MOTION_DOT,MEAN_MOTION_DDOT,TLE_LINE0,TLE_LINE1,TLE_LINE2,SEMIMAJOR_AXIS,PERIOD,APOGEE,PERIGEE,DECAYED
49736.0,STARLINK-3148,PAYLOAD,2022-06-06 14:00:01,15.08823315,0.0003234,53.2167,188.7442,28.199,359.4673,0.0017355,0.00027429,0.0,0 STARLINK-3148,1 49736U 21115N   22157.58334491  .00027429  00000-0  17355-2 0  9990,2 49736  53.2167 188.7442 0003234  28.1990 359.4673 15.08823315 29509,6917.931,95.439,542.034,537.559,0.0
49736.0,STARLINK-3148,PAYLOAD,2022-06-06 20:00:01,15.08838122,0.0003061,53.217,187.6205,30.4351,275.9239,-0.00039652,-6.594e-05,0.0,0 STARLINK-3148,1 49736U 21115N   22157.83334491 -.00006594  00000-0 -39652-3 0  9995,2 49736  53.2170 187.6205 0003061  30.4351 275.9239 15.08838122  1303,6917.886,95.438,541.869,537.634,0.0
49736.0,STARLINK-3148,PAYLOAD,2022-06-07 05:46:35,15.08798497,0.0003358,53.2172,185.792,40.41,319.7141,0.00058246,8.984e-05,0.0,0 STARLINK-3148,1 49736U 21115N   22158.24068596  .00008984  00000-0  58246-3 0  9994,2 49736  53.2172 185.7920 0003358  40.4100 319.7141 15.08798497 29602,6918.007,95.44,542.195,537.549,0.0
49736.0,STARLINK-3148,PAYLOAD,2022-06-07 10:32:43,15.08857367,0.0003156,53.2173,184.9,30.3852,329.7322,-0.00022076,-3.802e-05,0.0,0 STARLINK-3148,1 49736U 21115N   22158.43939108 -.00003802  00000-0 -22076-3 0  9999,2 49736  53.2173 184.9000 0003156  30.3852 329.7322 15.08857367 29638,6917.8269999999975,95.436,541.876,537.509,0.0
49736.0,STARLINK-3148,PAYLOAD,2022-06-07 18:29:39,15.08837001,0.0003123999999999,53.2174,183.4132,33.0487,327.07,0.00010296,1.35e-05,0.0,0 STARLINK-3148,1 49736U 21115N   22158.77059740  .00001350  00000-0  10296-3 0  9996,2 49736  53.2174 183.4132 0003124  33.0487 327.0700 15.08837001 29687,6917.89,95.438,541.9159999999998,537.5930000000002,0.0
49736.0,STARLINK-3148,PAYLOAD,2022-06-08 10:23:30,15.08841393,0.0003185,53.2173,180.4395,34.125,325.9947,0.00011623,1.562e-05,0.0,0 STARLINK-3148,1 49736U 21115N   22159.43299595  .00001562  00000-0  11623-3 0  9994,2 49736  53.2173 180.4395 0003185  34.1250 325.9947 15.08841393 28678,6917.876,95.437,541.944,537.538,0.0
49736.0,STARLINK-3148,PAYLOAD,2022-06-08 18:20:26,15.08843486,0.0003208,53.2174,178.9527,34.6364,325.4837,0.00012164,1.648e-05,0.0,0 STARLINK-3148,1 49736U 21115N   22159.76419477  .00001648  00000-0  12164-3 0  9999,2 49736  53.2174 178.9527 0003208  34.6364 325.4837 15.08843486 28729,6917.87,95.437,541.9540000000002,537.515,0.0
49736.0,STARLINK-3148,PAYLOAD,2022-06-09 03:52:45,15.08846605,0.0003231,53.2173,177.1685,35.4506,324.67,0.00012111,1.64e-05,0.0,0 STARLINK-3148,1 49736U 21115N   22160.16163243  .00001640  00000-0  12111-3 0  9996,2 49736  53.2173 177.1685 0003231  35.4506 324.6700 15.08846605 29892,6917.86,95.437,541.96,537.49,0.0
49736.0,STARLINK-3148,PAYLOAD,2022-06-09 10:14:17,15.08841625,0.0003203,53.2173,175.9787,34.8213,325.2988,6.3396e-05,7.200000000000001e-06,0.0,0 STARLINK-3148,1 49736U 21115N   22160.42659656  .00000720  00000-0  63396-4 0  9993,2 49736  53.2173 175.9787 0003203  34.8213 325.2988 15.08841625 28822,6917.875,95.437,541.956,537.525,0.0
49736.0,STARLINK-3148,PAYLOAD,2022-06-09 18:11:14,15.08831975,0.0003203,53.2174,174.49200000000005,35.0193,325.1009,-3.3003e-05,-8.14e-06,0.0,0 STARLINK-3148,1 49736U 21115N   22160.75780606 -.00000814  00000-0 -33003-4 0  9997,2 49736  53.2174 174.4920 0003203  35.0193 325.1009 15.08831975 29984,6917.905,95.438,541.986,537.554,0.0
49736.0,STARLINK-3148,PAYLOAD,2022-06-10 10:05:05,15.08835482,0.0003162,53.2174,171.5183,35.2632,324.8568,-3.2999e-05,-8.14e-06,0.0,0 STARLINK-3148,1 49736U 21115N   22161.42020639 -.00000814  00000-0 -32999-4 0  9998,2 49736  53.2174 171.5183 0003162  35.2632 324.8568 15.08835482 28978,6917.894,95.438,541.947,537.572,0.0
49736.0,STARLINK-3148,PAYLOAD,2022-06-10 18:02:01,15.08834852,0.000318,53.2174,170.0315,35.783,324.3375,-2.7625e-05,-7.28e-06,0.0,0 STARLINK-3148,1 49736U 21115N   22161.75140776 -.00000728  00000-0 -27625-4 0  9993,2 49736  53.2174 170.0315 0003180  35.7830 324.3375 15.08834852 29022,6917.896,95.438,541.961,537.561,0.0
49736.0,STARLINK-3148,PAYLOAD,2022-06-11 05:09:43,15.08833586,0.0003191999999999,53.2176,167.95,36.3943,323.7265,-2.0507e-05,-6.15e-06,0.0,0 STARLINK-3148,1 49736U 21115N   22162.21509050 -.00000615  00000-0 -20507-4 0  9996,2 49736  53.2176 167.9500 0003192  36.3943 323.7265 15.08833586 30206,6917.9,95.438,541.9730000000002,537.557,0.0
49736.0,STARLINK-3148,PAYLOAD,2022-06-11 17:52:49,15.08829307,0.0003316,53.2177,165.5716,38.3573,321.7655,9.5768e-05,1.235e-05,0.0,0 STARLINK-3148,1 49736U 21115N   22162.74501340  .00001235  00000-0  95768-4 0  9996,2 49736  53.2177 165.5716 0003316  38.3573 321.7655 15.08829307 29170,6917.913000000001,95.438,542.072,537.484,0.0
49736.0,STARLINK-3148,PAYLOAD,2022-06-12 11:22:03,15.08833725,0.0003372,53.2176,162.3007,39.8491,320.2748,0.00010155,1.328e-05,0.0,0 STARLINK-3148,1 49736U 21115N   22163.47365587  .00001328  00000-0  10155-3 0  9997,2 49736  53.2176 162.3007 0003372  39.8491 320.2748 15.08833725 30396,6917.9,95.438,542.097,537.432,0.0
49736.0,STARLINK-3148,PAYLOAD,2022-06-13 11:12:50,15.0884231,0.0003433,53.2176,157.8404,41.7647,318.3606,0.0001395999999999,1.934e-05,0.0,0 STARLINK-3148,1 49736U 21115N   22164.46725375  .00001934  00000-0  13960-3 0  9992,2 49736  53.2176 157.8404 0003433  41.7647 318.3606 15.08842310 29433,6917.873000000001,95.437,542.113,537.363,0.0
49736.0,STARLINK-3148,PAYLOAD,2022-06-14 04:42:04,15.08849992,0.0003465,53.2175,154.5695,43.6126,316.514,0.00018275,2.622e-05,0.0,0 STARLINK-3148,1 49736U 21115N   22165.19588950  .00002622  00000-0  18275-3 0  9998,2 49736  53.2175 154.5695 0003465  43.6126 316.5140 15.08849992 30658,6917.85,95.437,542.112,537.318,0.0
49736.0,STARLINK-3148,PAYLOAD,2022-06-14 09:28:14,15.08853483,0.000352,53.2165,153.6772,43.8949,316.2322,0.0002298,3.372e-05,0.0,0 STARLINK-3148,1 49736U 21115N   22165.39460865  .00003372  00000-0  22980-3 0  9995,2 49736  53.2165 153.6772 0003520  43.8949 316.2322 15.08853483 29578,6917.839,95.437,542.139,537.269,0.0
49736.0,STARLINK-3148,PAYLOAD,2022-06-14 15:49:46,15.08855652,0.0003535,53.2166,152.4878,44.4122,315.7153,0.00023016,3.378e-05,0.0,0 STARLINK-3148,1 49736U 21115N   22165.65956565  .00003378  00000-0  23016-3 0  9998,2 49736  53.2166 152.4878 0003535  44.4122 315.7153 15.08855652 29610,6917.833000000001,95.437,542.143,537.252,0.0
49736.0,STARLINK-3148,PAYLOAD,2022-06-15 04:32:51,15.08846633,0.0003562,53.2171,150.1096,46.4392,313.6895,1.1679e-05,-1.03e-06,0.0,0 STARLINK-3148,1 49736U 21115N   22166.18948636 -.00000103  00000-0  11679-4 0  9994,2 49736  53.2171 150.1096 0003562  46.4392 313.6895 15.08846633 30806,6917.86,95.437,542.189,537.261,0.0
49736.0,STARLINK-3148,PAYLOAD,2022-06-15 07:43:38,15.08843773,0.0003529,53.2181,149.5149,46.2189,313.9095,3.4492e-05,2.6e-06,0.0,0 STARLINK-3148,1 49736U 21115N   22166.32197110  .00000260  00000-0  34492-4 0  9994,2 49736  53.2181 149.5149 0003529  46.2189 313.9095 15.08843773 29718,6917.869000000002,95.437,542.175,537.293,0.0
49736.0,STARLINK-3148,PAYLOAD,2022-06-15 15:40:33,15.08846275,0.0003552,53.2182,148.0282,46.8278,313.3011,5.0292e-05,5.12e-06,0.0,0 STARLINK-3148,1 49736U 21115N   22166.65316807  .00000512  00000-0  50292-4 0  9992,2 49736  53.2182 148.0282 0003552  46.8278 313.3011 15.08846275 29769,6917.861,95.437,542.183,537.269,0.0
49736.0,STARLINK-3148,PAYLOAD,2022-06-19 03:55:59,15.08840279,0.000389,53.2179,132.2688,50.9073,309.2264,8.3027e-05,1.033e-05,0.0,0 STARLINK-3148,1 49736U 21115N   22170.16388471  .00001033  00000-0  83027-4 0  9990,2 49736  53.2179 132.2688 0003890  50.9073 309.2264 15.08840279 30296,6917.88,95.438,542.436,537.053,0.0
49736.0,STARLINK-3148,PAYLOAD,2022-06-19 15:03:41,15.08842524,0.0003569,53.2184,130.186,54.1979,305.9345,0.00019815,2.867e-05,0.0,0 STARLINK-3148,1 49736U 21115N   22170.62755900  .00002867  00000-0  19815-3 0  9995,2 49736  53.2184 130.1860 0003569  54.1979 305.9345 15.08842524 31474,6917.873000000001,95.437,542.207,537.269,0.0
49736.0,STARLINK-3148,PAYLOAD,2022-06-19 21:25:13,15.08843443,0.000327,53.2179,128.995,63.127,297.0056,0.0001118,1.491e-05,0.0,0 STARLINK-3148,1 49736U 21115N   22170.89252131  .00001491  00000-0  11180-3 0  9991,2 49736  53.2179 128.9950 0003270  63.1270 297.0056 15.08843443 30409,6917.87,95.437,541.997,537.4730000000002,0.0
49736.0,STARLINK-3148,PAYLOAD,2022-06-20 03:46:46,15.08839085,0.0003628,53.2177,127.808,55.8501,304.2835,8.7098e-05,1.098e-05,0.0,0 STARLINK-3148,1 49736U 21115N   22171.15748577  .00001098  00000-0  87098-4 0  9990,2 49736  53.2177 127.8080 0003628  55.8501 304.2835 15.08839085 31551,6917.8830000000025,95.438,542.258,537.238,0.0
49736.0,STARLINK-3148,PAYLOAD,2022-06-20 06:57:33,15.0883937,0.0003637,53.2177,127.2133,56.0453,304.0885,8.591299999999999e-05,1.079e-05,0.0,0 STARLINK-3148,1 49736U 21115N   22171.28996571  .00001079  00000-0  85913-4 0  9996,2 49736  53.2177 127.2133 0003637  56.0453 304.0885 15.08839370 30462,6917.882,95.438,542.263,537.231,0.0
49736.0,STARLINK-3148,PAYLOAD,2022-06-21 03:37:34,15.08835851,0.0003493,53.2159,123.3467,52.8362,307.2949,-2.9748e-05,-7.62e-06,0.0,0 STARLINK-3148,1 49736U 21115N   22172.15109217 -.00000762  00000-0 -29748-4 0  9990,2 49736  53.2159 123.3467 0003493  52.8362 307.2949 15.08835851 31706,6917.893,95.438,542.174,537.342,0.0
49736.0,STARLINK-3148,PAYLOAD,2022-06-21 13:09:52,15.08840732,0.0003515,53.2182,121.5637,55.6514,304.481,-2.7067e-05,-7.200000000000001e-06,0.0,0 STARLINK-3148,1 49736U 21115N   22172.54852994 -.00000720  00000-0 -27067-4 0  9996,2 49736  53.2182 121.5637 0003515  55.6514 304.4810 15.08840732 30659,6917.878000000002,95.438,542.175,537.312,0.0
